IRIDIUM 171             
1 43929U 19002H   24162.89415217  .00000240  00000+0  78572-4 0  9999
2 43929  86.3963 301.4992 0002390  94.9414 265.2055 14.34217919283422
IRIDIUM 170             
1 43930U 19002J   24162.87100313  .00002127  00000+0  33339-3 0  9994
2 43930  86.6084 301.3293 0002370  87.7730 272.3759 14.72252910290928
IRIDIUM 167             
1 43931U 19002K   24162.88781220  .00000089  00000+0  24619-4 0  9995
2 43931  86.3953 301.2929 0002193  94.8720 265.2727 14.34217586283428
IRIDIUM 177             
1 56727U 23068T   24162.93826732  .00002982  00000+0  38890-3 0  9992
2 56727  86.1967 318.3281 0002600  93.9270 266.2249 14.80235647 57452
IRIDIUM 174             
1 56728U 23068U   24162.93283820  .00002963  00000+0  38641-3 0  9991
2 56728  86.1973 318.4339 0002158  92.8949 267.2519 14.80235240 57454
IRIDIUM 178             
1 56729U 23068V   24162.92754098  .00002856  00000+0  37229-3 0  9993
2 56729  86.5778 335.6056 0001930  86.3180 273.8262 14.80243748 57451
IRIDIUM 179             
1 56730U 23068W   24162.44869546  .00000895  00000+0  11438-3 0  9992
2 56730  86.6784 339.8597 0001968  90.9134 269.2313 14.80223374 57389
